{
  "type": "FeatureCollection",
  "name": "egypt_construction_monitoring_screening_aois",
  "crs": {
    "type": "name",
    "properties": {
      "name": "urn:ogc:def:crs:OGC:1.3:CRS84"
    }
  },
  "features": [
    {
      "type": "Feature",
      "properties": {
        "aoi_id": "new_cairo_mostakbal",
        "working_name": "Mostakbal / eastern New Cairo growth area",
        "status": "provisional_screening",
        "boundary_claim": "none"
      },
      "geometry": {
        "type": "Polygon",
        "coordinates": [[
          [31.6000, 30.0250],
          [31.6700, 30.0250],
          [31.6700, 30.0850],
          [31.6000, 30.0850],
          [31.6000, 30.0250]
        ]]
      }
    },
    {
      "type": "Feature",
      "properties": {
        "aoi_id": "new_capital_core",
        "working_name": "New Capital CBD-government corridor",
        "status": "provisional_screening",
        "boundary_claim": "none"
      },
      "geometry": {
        "type": "Polygon",
        "coordinates": [[
          [31.7200, 29.9700],
          [31.7900, 29.9700],
          [31.7900, 30.0300],
          [31.7200, 30.0300],
          [31.7200, 29.9700]
        ]]
      }
    },
    {
      "type": "Feature",
      "properties": {
        "aoi_id": "new_capital_east_holdout",
        "working_name": "New Capital eastern holdout",
        "status": "held_out_v3",
        "boundary_claim": "none"
      },
      "geometry": {
        "type": "Polygon",
        "coordinates": [[
          [31.7900, 29.9700],
          [31.8600, 29.9700],
          [31.8600, 30.0300],
          [31.7900, 30.0300],
          [31.7900, 29.9700]
        ]]
      }
    },
    {
      "type": "Feature",
      "properties": {
        "aoi_id": "new_capital_south_holdout",
        "working_name": "New Capital southern holdout",
        "status": "held_out_v4",
        "boundary_claim": "none"
      },
      "geometry": {
        "type": "Polygon",
        "coordinates": [[
          [31.7200, 29.9100],
          [31.7900, 29.9100],
          [31.7900, 29.9700],
          [31.7200, 29.9700],
          [31.7200, 29.9100]
        ]]
      }
    }
  ]
}
